1 27607U 02058C 26162.22122948 .00000841 00000+0 11657-3 0 9999 
2 27607 64.5506 147.4439 0075409 263.5789 95.6727 14.83033486263576 
1 28371U 04025F 26162.25906152 .00000224 00000+0 61070-4 0 9994 
2 28371 98.5507 162.0878 0023839 317.2308 42.7033 14.56680399164885 
1 31118U 07012B 26161.86647533 .00000217 00000+0 43183-4 0 9994 
2 31118 98.1453 112.2630 0013363 245.6842 114.2970 14.71421993 26810 
1 41784U 16059B 26162.01358544 .00000783 00000+0 14095-3 0 9991 
2 41784 97.8178 162.7317 0027925 223.1111 136.7909 14.68973040518831 
1 42831U 17042G 26162.31957682 .00003348 00000+0 26502-3 0 9995 
2 42831 97.4660 318.0797 0019275 140.7203 219.5424 15.01107587485579 
1 46495U 20068K 26162.25849645 .00006276 00000+0 22076-3 0 9994 
2 46495 97.8851 164.9624 0008555 332.6699 27.4089 15.29713226314456 
